OCEANSAT-2              
1 35931U 09051A   26095.21214712  .00000012  00000+0  34034-4 0  9998
2 35931  98.2314  89.3629 0017438  80.3321 279.9815 13.99655052869129
WORLDVIEW-2 (WV-2)      
1 35946U 09055A   26095.23882180  .00000254  00000+0  98531-4 0  9990
2 35946  98.4651 169.7200 0005533  82.0558 278.1257 14.37922551865168
SMOS                    
1 36036U 09059A   26095.28798550  .00000392  00000+0  13889-3 0  9992
2 36036  98.4435 283.6840 0000980  98.3929 261.7370 14.39780508862963
YAOGAN-7                
1 36110U 09069A   26095.24211129  .00000915  00000+0  13383-3 0  9994
2 36110  98.0166 341.5256 0023241 275.0616  84.7941 14.77937347878859
TANDEM-X                
1 36605U 10030A   26094.48511681  .00002265  00000+0  11103-3 0  9992
2 36605  97.4463 103.2410 0001823  93.1337 267.0106 15.19151172875450
CARTOSAT-2B             
1 36795U 10035A   26095.32304336  .00001694  00000+0  23841-3 0  9995
2 36795  98.0033 146.3088 0012594  67.9503 292.3044 14.78588060849086
YAOGAN-10               
1 36834U 10038A   26095.26670355  .00001280  00000+0  15596-3 0  9991
2 36834  97.9044 119.2420 0001503  84.1581  44.6927 14.85128625846387
COSMO-SKYMED 4          
1 37216U 10060A   26095.26233571  .00000894  00000+0  11877-3 0  9994
2 37216  97.8875 279.9156 0001466  83.0860 277.0520 14.82160637833764
RESOURCESAT-2           
1 37387U 11015A   26095.17272690 -.00000395  00000+0 -15835-3 0  9995
2 37387  98.7699 163.1021 0010511 101.3733 258.8626 14.22145132775807
HAIYANG-2A              
1 37781U 11043A   26095.29721014 -.00000047  00000+0 -27235-5 0  9999
2 37781  99.3415  99.4531 0003819 228.0021 132.0805 13.76912175736632
RASAT                   
1 37791U 11044D   26095.25629054  .00001242  00000+0  22405-3 0  9996
2 37791  98.0552 187.7810 0021848  65.3563  19.2084 14.68099619782487
SRMSAT                  
1 37841U 11058D   26094.43294969  .00000492  00000+0  12313-3 0  9992
2 37841  19.9707 145.8850 0011920 111.8741  15.3851 14.11557506747382
PLEIADES 1A             
1 38012U 11076F   26095.27620801  .00000743  00000+0  16964-3 0  9999
2 38012  98.2005 171.3482 0001387  74.0467  17.2967 14.58565388761361
ZIYUAN 1-02C (ZY 1-02C) 
1 38038U 11079A   26095.30789375  .00000889  00000+0  30709-3 0  9990
2 38038  98.4123 164.1256 0006932 156.0725 291.7091 14.38154787748738
ARIRANG-3 (KOMPSAT-3)   
1 38338U 12025B   26095.28933757  .00000782  00000+0  16473-3 0  9991
2 38338  98.1108  54.0395 0005265 358.6409   1.4777 14.62140418740696
EXACTVIEW-1 (ADS-1B)    
1 38709U 12039C   26095.28619475  .00000209  00000+0  10904-3 0  9993
2 38709  98.9668 211.0675 0011206  27.0555 333.1205 14.24962523712321
