[{"OBJECT_NAME":"OCEANSAT-2","OBJECT_ID":"2009-051A","EPOCH":"2026-04-05T05:05:29.511168","MEAN_MOTION":13.99655052,"ECCENTRICITY":0.00174388,"INCLINATION":98.2314,"RA_OF_ASC_NODE":89.3629,"ARG_OF_PERICENTER":80.3321,"MEAN_ANOMALY":279.9815,"EPHEMERIS_TYPE":0,"CLASSIFICATION_TYPE":"U","NORAD_CAT_ID":35931,"ELEMENT_SET_NO":999,"REV_AT_EPOCH":86912,"BSTAR":3.4033853e-5,"MEAN_MOTION_DOT":1.2e-7,"MEAN_MOTION_DDOT":0},{"OBJECT_NAME":"WORLDVIEW-2 (WV-2)","OBJECT_ID":"2009-055A","EPOCH":"2026-04-05T05:43:54.203520","MEAN_MOTION":14.37922551,"ECCENTRICITY":0.0005533,"INCLINATION":98.4651,"RA_OF_ASC_NODE":169.72,"ARG_OF_PERICENTER":82.0558,"MEAN_ANOMALY":278.1257,"EPHEMERIS_TYPE":0,"CLASSIFICATION_TYPE":"U","NORAD_CAT_ID":35946,"ELEMENT_SET_NO":999,"REV_AT_EPOCH":86516,"BSTAR":9.8530527e-5,"MEAN_MOTION_DOT":2.54e-6,"MEAN_MOTION_DDOT":0},{"OBJECT_NAME":"SMOS","OBJECT_ID":"2009-059A","EPOCH":"2026-04-05T06:54:41.947200","MEAN_MOTION":14.39780508,"ECCENTRICITY":9.801e-5,"INCLINATION":98.4435,"RA_OF_ASC_NODE":283.684,"ARG_OF_PERICENTER":98.3929,"MEAN_ANOMALY":261.737,"EPHEMERIS_TYPE":0,"CLASSIFICATION_TYPE":"U","NORAD_CAT_ID":36036,"ELEMENT_SET_NO":999,"REV_AT_EPOCH":86296,"BSTAR":0.00013888881,"MEAN_MOTION_DOT":3.92e-6,"MEAN_MOTION_DDOT":0},{"OBJECT_NAME":"YAOGAN-7","OBJECT_ID":"2009-069A","EPOCH":"2026-04-05T05:48:38.415456","MEAN_MOTION":14.77937347,"ECCENTRICITY":0.0023241,"INCLINATION":98.0166,"RA_OF_ASC_NODE":341.5256,"ARG_OF_PERICENTER":275.0616,"MEAN_ANOMALY":84.7941,"EPHEMERIS_TYPE":0,"CLASSIFICATION_TYPE":"U","NORAD_CAT_ID":36110,"ELEMENT_SET_NO":999,"REV_AT_EPOCH":87885,"BSTAR":0.0001338302,"MEAN_MOTION_DOT":9.15e-6,"MEAN_MOTION_DDOT":0},{"OBJECT_NAME":"TANDEM-X","OBJECT_ID":"2010-030A","EPOCH":"2026-04-04T11:38:34.092384","MEAN_MOTION":15.19151172,"ECCENTRICITY":0.0001823,"INCLINATION":97.4463,"RA_OF_ASC_NODE":103.241,"ARG_OF_PERICENTER":93.1337,"MEAN_ANOMALY":267.0106,"EPHEMERIS_TYPE":0,"CLASSIFICATION_TYPE":"U","NORAD_CAT_ID":36605,"ELEMENT_SET_NO":999,"REV_AT_EPOCH":87545,"BSTAR":0.00011103,"MEAN_MOTION_DOT":2.265e-5,"MEAN_MOTION_DDOT":0},{"OBJECT_NAME":"CARTOSAT-2B","OBJECT_ID":"2010-035A","EPOCH":"2026-04-05T07:45:10.946304","MEAN_MOTION":14.7858806,"ECCENTRICITY":0.00125942,"INCLINATION":98.0033,"RA_OF_ASC_NODE":146.3088,"ARG_OF_PERICENTER":67.9503,"MEAN_ANOMALY":292.3044,"EPHEMERIS_TYPE":0,"CLASSIFICATION_TYPE":"U","NORAD_CAT_ID":36795,"ELEMENT_SET_NO":999,"REV_AT_EPOCH":84908,"BSTAR":0.00023841225,"MEAN_MOTION_DOT":1.694e-5,"MEAN_MOTION_DDOT":0},{"OBJECT_NAME":"YAOGAN-10","OBJECT_ID":"2010-038A","EPOCH":"2026-04-05T06:24:03.186720","MEAN_MOTION":14.85128625,"ECCENTRICITY":0.00015039,"INCLINATION":97.9044,"RA_OF_ASC_NODE":119.242,"ARG_OF_PERICENTER":84.1581,"MEAN_ANOMALY":44.6927,"EPHEMERIS_TYPE":0,"CLASSIFICATION_TYPE":"U","NORAD_CAT_ID":36834,"ELEMENT_SET_NO":999,"REV_AT_EPOCH":84638,"BSTAR":0.00015595853,"MEAN_MOTION_DOT":1.28e-5,"MEAN_MOTION_DDOT":0},{"OBJECT_NAME":"COSMO-SKYMED 4","OBJECT_ID":"2010-060A","EPOCH":"2026-04-05T06:17:45.805344","MEAN_MOTION":14.82160637,"ECCENTRICITY":0.00014662,"INCLINATION":97.8875,"RA_OF_ASC_NODE":279.9156,"ARG_OF_PERICENTER":83.086,"MEAN_ANOMALY":277.052,"EPHEMERIS_TYPE":0,"CLASSIFICATION_TYPE":"U","NORAD_CAT_ID":37216,"ELEMENT_SET_NO":999,"REV_AT_EPOCH":83376,"BSTAR":0.00011877188,"MEAN_MOTION_DOT":8.94e-6,"MEAN_MOTION_DDOT":0},{"OBJECT_NAME":"RESOURCESAT-2","OBJECT_ID":"2011-015A","EPOCH":"2026-04-05T04:08:43.604160","MEAN_MOTION":14.22145132,"ECCENTRICITY":0.00105119,"INCLINATION":98.7699,"RA_OF_ASC_NODE":163.1021,"ARG_OF_PERICENTER":101.3733,"MEAN_ANOMALY":258.8626,"EPHEMERIS_TYPE":0,"CLASSIFICATION_TYPE":"U","NORAD_CAT_ID":37387,"ELEMENT_SET_NO":999,"REV_AT_EPOCH":77580,"BSTAR":-0.00015834663,"MEAN_MOTION_DOT":-3.95e-6,"MEAN_MOTION_DDOT":0},{"OBJECT_NAME":"HAIYANG-2A","OBJECT_ID":"2011-043A","EPOCH":"2026-04-05T07:07:58.956096","MEAN_MOTION":13.76912175,"ECCENTRICITY":0.00038198,"INCLINATION":99.3415,"RA_OF_ASC_NODE":99.4531,"ARG_OF_PERICENTER":228.0021,"MEAN_ANOMALY":132.0805,"EPHEMERIS_TYPE":0,"CLASSIFICATION_TYPE":"U","NORAD_CAT_ID":37781,"ELEMENT_SET_NO":999,"REV_AT_EPOCH":73663,"BSTAR":-2.723514e-6,"MEAN_MOTION_DOT":-4.7e-7,"MEAN_MOTION_DDOT":0},{"OBJECT_NAME":"RASAT","OBJECT_ID":"2011-044D","EPOCH":"2026-04-05T06:09:03.502656","MEAN_MOTION":14.68099619,"ECCENTRICITY":0.00218489,"INCLINATION":98.0552,"RA_OF_ASC_NODE":187.781,"ARG_OF_PERICENTER":65.3563,"MEAN_ANOMALY":19.2084,"EPHEMERIS_TYPE":0,"CLASSIFICATION_TYPE":"U","NORAD_CAT_ID":37791,"ELEMENT_SET_NO":999,"REV_AT_EPOCH":78248,"BSTAR":0.00022404508,"MEAN_MOTION_DOT":1.242e-5,"MEAN_MOTION_DDOT":0},{"OBJECT_NAME":"SRMSAT","OBJECT_ID":"2011-058D","EPOCH":"2026-04-04T10:23:26.853216","MEAN_MOTION":14.11557506,"ECCENTRICITY":0.00119205,"INCLINATION":19.9707,"RA_OF_ASC_NODE":145.885,"ARG_OF_PERICENTER":111.8741,"MEAN_ANOMALY":15.3851,"EPHEMERIS_TYPE":0,"CLASSIFICATION_TYPE":"U","NORAD_CAT_ID":37841,"ELEMENT_SET_NO":999,"REV_AT_EPOCH":74738,"BSTAR":0.00012313315,"MEAN_MOTION_DOT":4.92e-6,"MEAN_MOTION_DDOT":0},{"OBJECT_NAME":"PLEIADES 1A","OBJECT_ID":"2011-076F","EPOCH":"2026-04-05T06:37:44.372064","MEAN_MOTION":14.58565388,"ECCENTRICITY":0.00013872,"INCLINATION":98.2005,"RA_OF_ASC_NODE":171.3482,"ARG_OF_PERICENTER":74.0467,"MEAN_ANOMALY":17.2967,"EPHEMERIS_TYPE":0,"CLASSIFICATION_TYPE":"U","NORAD_CAT_ID":38012,"ELEMENT_SET_NO":999,"REV_AT_EPOCH":76136,"BSTAR":0.00016963903,"MEAN_MOTION_DOT":7.43e-6,"MEAN_MOTION_DDOT":0},{"OBJECT_NAME":"ZIYUAN 1-02C (ZY 1-02C)","OBJECT_ID":"2011-079A","EPOCH":"2026-04-05T07:23:22.020000","MEAN_MOTION":14.38154787,"ECCENTRICITY":0.0006932,"INCLINATION":98.4123,"RA_OF_ASC_NODE":164.1256,"ARG_OF_PERICENTER":156.0725,"MEAN_ANOMALY":291.7091,"EPHEMERIS_TYPE":0,"CLASSIFICATION_TYPE":"U","NORAD_CAT_ID":38038,"ELEMENT_SET_NO":999,"REV_AT_EPOCH":74873,"BSTAR":0.00030708847,"MEAN_MOTION_DOT":8.89e-6,"MEAN_MOTION_DDOT":0},{"OBJECT_NAME":"ARIRANG-3 (KOMPSAT-3)","OBJECT_ID":"2012-025B","EPOCH":"2026-04-05T06:56:38.766048","MEAN_MOTION":14.62140418,"ECCENTRICITY":0.00052654,"INCLINATION":98.1108,"RA_OF_ASC_NODE":54.0395,"ARG_OF_PERICENTER":358.6409,"MEAN_ANOMALY":1.4777,"EPHEMERIS_TYPE":0,"CLASSIFICATION_TYPE":"U","NORAD_CAT_ID":38338,"ELEMENT_SET_NO":999,"REV_AT_EPOCH":74069,"BSTAR":0.00016473099,"MEAN_MOTION_DOT":7.82e-6,"MEAN_MOTION_DDOT":0},{"OBJECT_NAME":"EXACTVIEW-1 (ADS-1B)","OBJECT_ID":"2012-039C","EPOCH":"2026-04-05T06:52:07.226400","MEAN_MOTION":14.24962523,"ECCENTRICITY":0.00112068,"INCLINATION":98.9668,"RA_OF_ASC_NODE":211.0675,"ARG_OF_PERICENTER":27.0555,"MEAN_ANOMALY":333.1205,"EPHEMERIS_TYPE":0,"CLASSIFICATION_TYPE":"U","NORAD_CAT_ID":38709,"ELEMENT_SET_NO":999,"REV_AT_EPOCH":71232,"BSTAR":0.00010904115,"MEAN_MOTION_DOT":2.09e-6,"MEAN_MOTION_DDOT":0}]
